IRIDIUM 150             
1 43257U 18030J   23299.80767151  .00000332  00000+0  11135-3 0  9994
2 43257  86.3969 333.5289 0002045 100.1944 259.9482 14.34220239291952
IRIDIUM 143             
1 43258U 18030K   23299.64911498 -.00000168  00000+0 -67058-4 0  9997
2 43258  86.3970 333.6490 0002238  99.7974 260.3474 14.34214833291848
IRIDIUM 161             
1 43478U 18047C   23300.05424036  .00000191  00000+0  50864-4 0  9995
2 43478  86.4461 131.4531 0002052  82.0825 278.0609 14.43272736286073
IRIDIUM 152             
1 43479U 18047D   23299.90093117  .00000148  00000+0  45726-4 0  9992
2 43479  86.3941 131.3778 0002284  92.0244 268.1214 14.34212151284278
IRIDIUM 147             
1 43480U 18047E   23299.76770793  .00000134  00000+0  40721-4 0  9995
2 43480  86.3940 131.4217 0001998  82.6494 277.4929 14.34217529284259
IRIDIUM 110             
1 43481U 18047F   23299.63450877  .00000127  00000+0  38195-4 0  9994
2 43481  86.3944 131.5442 0001868  82.4381 277.7027 14.34216597284227
IRIDIUM 162             
1 43482U 18047G   23300.04801591  .00000180  00000+0  47494-4 0  9997
2 43482  86.4463 131.3597 0002078  87.6014 272.5424 14.43278181286063
IRIDIUM 160             
1 43569U 18061A   23299.99896640  .00000149  00000+0  45972-4 0  9993
2 43569  86.3921  99.7499 0002345  86.8516 273.2948 14.34217268275178
